ONEWEB-0685             
1 54679U 22166AP  25107.60304066  .00000017  00000+0  99695-5 0  9998
2 54679  87.9278 328.8589 0002058  85.8822 274.2547 13.21825412115192
ONEWEB-0712             
1 54680U 22166AQ  25107.55303041  .00000091  00000+0  20358-3 0  9996
2 54680  87.9026 313.6141 0001975  72.4940 287.6406 13.16596301116055
ONEWEB-0714             
1 54681U 22166AR  25107.60932991  .00000031  00000+0  42573-4 0  9993
2 54681  87.9281 328.8486 0002037  83.6771 276.4595 13.21828498115319
ONEWEB-0532             
1 55140U 23004A   25107.41112625  .00000118  00000+0  26959-3 0  9994
2 55140  87.9017  90.6510 0002201  98.1877 261.9504 13.17648529111517
ONEWEB-0541             
1 55142U 23004C   25107.44632002  .00000558  00000+0  15394-2 0  9993
2 55142  87.8792 105.9152 0002001  90.4756 269.6601 13.11417846110140
ONEWEB-0544             
1 55144U 23004E   25107.41490960 -.00000005  00000+0 -45176-4 0  9999
2 55144  87.9118  60.1479 0001832  80.0346 280.0992 13.18686065113589
